OBJECT_NAME,OBJECT_ID,EPOCH,MEAN_MOTION,ECCENTRICITY,INCLINATION,RA_OF_ASC_NODE,ARG_OF_PERICENTER,MEAN_ANOMALY,EPHEMERIS_TYPE,CLASSIFICATION_TYPE,NORAD_CAT_ID,ELEMENT_SET_NO,REV_AT_EPOCH,BSTAR,MEAN_MOTION_DOT,MEAN_MOTION_DDOT
ONEWEB-0309,2021-075W,2026-07-17T22:03:30.677184,13.17651127,.00023586,87.9149,359.7489,91.8331,268.3071,0,U,49095,999,23762,.12283831E-3,.61E-6,0
ONEWEB-0310,2021-075X,2026-07-17T21:11:26.814336,13.12442754,.00018675,87.8967,344.5756,97.5926,262.5415,0,U,49096,999,23921,-.62627172E-3,-.213E-5,0
ONEWEB-0311,2021-075Y,2026-07-17T22:13:14.762784,13.17648686,.00016731,87.9151,359.7473,81.8578,278.2743,0,U,49097,999,23767,-.54132968E-4,-.8E-7,0
ONEWEB-0312,2021-075Z,2026-07-17T20:45:46.537344,13.17648489,.00020178,87.9143,359.7704,84.1538,275.9823,0,U,49098,999,23764,-.82618233E-4,-.19E-6,0
ONEWEB-0313,2021-075AA,2026-07-17T20:52:50.775168,13.17650164,.00018162,87.9145,359.7742,89.5804,270.5536,0,U,49099,999,23763,-.35989572E-4,-.1E-7,0
ONEWEB-0314,2021-075AB,2026-07-17T21:53:47.300064,13.17651130,.0002022,87.9159,359.7415,81.9170,278.2191,0,U,49100,999,23761,.58674044E-4,.36E-6,0
ONEWEB-0315,2021-075AC,2026-07-17T22:22:12.785088,13.12442611,.00015636,87.8974,344.5327,87.3780,272.7528,0,U,49101,999,23920,.12695585E-2,.469E-5,0
ONEWEB-0316,2021-075AD,2026-07-17T21:20:03.798240,13.18686106,.00019703,87.9195,329.3509,99.5227,260.6128,0,U,49102,999,24125,-.2352302E-5,.12E-6,0
ONEWEB-0317,2021-075AE,2026-07-17T22:27:05.608512,13.12442307,.00025019,87.8968,344.5556,105.8107,254.3298,0,U,49103,999,23922,.11565282E-2,.429E-5,0
ONEWEB-0318,2021-075AF,2026-07-17T21:15:00.529056,13.18686425,.0001773,87.9197,329.3538,93.9376,266.1959,0,U,49104,999,24121,.10030363E-3,.52E-6,0
ONEWEB-0319,2021-075AG,2026-07-17T22:15:40.458240,13.17648505,.00014546,87.9146,359.7525,81.1530,278.9766,0,U,49105,999,23765,-.18689026E-3,-.6E-6,0
ONEWEB-0323,2021-075AH,2026-07-17T22:00:15.101280,13.12443881,.00015703,87.8974,344.5410,79.9999,280.1307,0,U,49106,999,23858,.48779101E-3,.188E-5,0
ONEWEB-0329,2021-075AJ,2026-07-17T22:27:48.659904,13.17647430,.00019198,87.9150,359.7519,88.5659,271.5692,0,U,49107,999,23763,-.81166291E-4,-.19E-6,0
ONEWEB-0330,2021-075AK,2026-07-17T20:43:31.075104,13.17646485,.000201,87.9150,359.7775,89.4071,270.7291,0,U,49108,999,23766,-.35126802E-4,-.1E-7,0
ONEWEB-0292,2021-083A,2026-07-17T20:45:46.934784,13.13469236,.00018026,87.8980,314.1330,97.8776,262.2558,0,U,49186,999,23495,.16757684E-3,.74E-6,0
ONEWEB-0303,2021-083B,2026-07-17T21:10:08.690592,13.18684128,.00017956,87.9196,329.3528,94.3859,265.7479,0,U,49187,999,23402,-.13176663E-3,-.39E-6,0
ONEWEB-0306,2021-083C,2026-07-17T20:55:35.425920,13.18684551,.0002106,87.9199,329.3439,101.0602,259.0768,0,U,49188,999,23406,.10321675E-3,.54E-6,0
ONEWEB-0307,2021-083D,2026-07-17T20:37:14.743488,13.13468172,.00018945,87.8981,314.1318,96.6603,263.4741,0,U,49189,999,23495,.57038747E-3,.221E-5,0
ONEWEB-0320,2021-083E,2026-07-17T21:24:41.954400,13.18687561,.0001958,87.9192,329.3544,99.3525,260.7828,0,U,49190,999,23402,-.85327824E-4,-.21E-6,0
ONEWEB-0321,2021-083F,2026-07-17T15:43:35.233824,13.20773066,.00021546,87.9181,268.3633,104.7539,255.3833,0,U,49191,999,24085,-.1203253E-3,-.36E-6,0
ONEWEB-0322,2021-083G,2026-07-17T20:31:10.058592,13.13470013,.0002089,87.8978,314.1324,111.5894,248.5457,0,U,49192,999,23494,.77944816E-3,.297E-5,0
ONEWEB-0324,2021-083H,2026-07-17T20:45:52.691616,13.18686531,.00020748,87.9201,329.3508,94.8580,265.2789,0,U,49193,999,23404,-.14626232E-4,.7E-7,0
ONEWEB-0325,2021-083J,2026-07-17T20:50:43.129536,13.18687172,.00018507,87.9191,329.3555,99.3063,260.8279,0,U,49194,999,23405,.17111106E-4,.2E-6,0
ONEWEB-0326,2021-083K,2026-07-17T21:12:47.918016,13.18686201,.00016453,87.9199,329.3527,94.3824,265.7496,0,U,49195,999,23404,.11301185E-3,.57E-6,0
ONEWEB-0327,2021-083L,2026-07-17T21:12:23.756256,13.18686106,.00014906,87.9191,329.3546,96.7810,263.3492,0,U,49196,999,23406,-.33599679E-4,0,0
ONEWEB-0328,2021-083M,2026-07-17T18:26:50.762112,13.13469842,.00020567,87.8989,314.1257,96.8026,263.3337,0,U,49197,999,23491,.75107167E-3,.287E-5,0
ONEWEB-0331,2021-083N,2026-07-17T21:02:52.375776,13.18684309,.00016848,87.9201,329.3481,89.7559,270.3766,0,U,49198,999,23405,.37775213E-4,.28E-6,0
ONEWEB-0333,2021-083P,2026-07-17T20:09:13.601664,13.13470184,.00018926,87.8984,314.1347,100.0139,260.1204,0,U,49199,999,23493,.56099926E-3,.218E-5,0
ONEWEB-0334,2021-083Q,2026-07-17T21:31:27.394176,13.20769338,.00025432,87.9185,268.3254,114.5265,245.6133,0,U,49200,999,24084,.67238016E-4,.4E-6,0
ONEWEB-0335,2021-083R,2026-07-17T20:01:54.649920,13.13469283,.00018194,87.8980,314.1333,95.9739,264.1597,0,U,49201,999,23494,.43868169E-3,.173E-5,0
