ONEWEB-0309             
1 49095U 21075W   26198.91910506  .00000061  00000+0  12284-3 0  9995
2 49095  87.9149 359.7489 0002358  91.8331 268.3071 13.17651127237626
ONEWEB-0310             
1 49096U 21075X   26198.88294924 -.00000213  00000+0 -62627-3 0  9998
2 49096  87.8967 344.5756 0001867  97.5926 262.5415 13.12442754239214
ONEWEB-0311             
1 49097U 21075Y   26198.92586531 -.00000008  00000+0 -54133-4 0  9998
2 49097  87.9151 359.7473 0001673  81.8578 278.2743 13.17648686237672
ONEWEB-0312             
1 49098U 21075Z   26198.86512196 -.00000019  00000+0 -82618-4 0  9999
2 49098  87.9143 359.7704 0002017  84.1538 275.9823 13.17648489237647
ONEWEB-0313             
1 49099U 21075AA  26198.87003212 -.00000001  00000+0 -35990-4 0  9997
2 49099  87.9145 359.7742 0001816  89.5804 270.5536 13.17650164237637
ONEWEB-0314             
1 49100U 21075AB  26198.91235301  .00000036  00000+0  58674-4 0  9991
2 49100  87.9159 359.7415 0002022  81.9170 278.2191 13.17651130237618
ONEWEB-0315             
1 49101U 21075AC  26198.93209242  .00000469  00000+0  12696-2 0  9991
2 49101  87.8974 344.5327 0001563  87.3780 272.7528 13.12442611239200
ONEWEB-0316             
1 49102U 21075AD  26198.88893285  .00000012  00000+0 -23523-5 0  9991
2 49102  87.9195 329.3509 0001970  99.5227 260.6128 13.18686106241258
ONEWEB-0317             
1 49103U 21075AE  26198.93548158  .00000429  00000+0  11565-2 0  9995
2 49103  87.8968 344.5556 0002501 105.8107 254.3298 13.12442307239225
ONEWEB-0318             
1 49104U 21075AF  26198.88542279  .00000052  00000+0  10030-3 0  9997
2 49104  87.9197 329.3538 0001773  93.9376 266.1959 13.18686425241211
ONEWEB-0319             
1 49105U 21075AG  26198.92755160 -.00000060  00000+0 -18689-3 0  9997
2 49105  87.9146 359.7525 0001454  81.1530 278.9766 13.17648505237652
ONEWEB-0323             
1 49106U 21075AH  26198.91684145  .00000188  00000+0  48779-3 0  9993
2 49106  87.8974 344.5410 0001570  79.9999 280.1307 13.12443881238583
ONEWEB-0329             
1 49107U 21075AJ  26198.93597986 -.00000019  00000+0 -81166-4 0  9995
2 49107  87.9150 359.7519 0001919  88.5659 271.5692 13.17647430237632
ONEWEB-0330             
1 49108U 21075AK  26198.86355411 -.00000001  00000+0 -35127-4 0  9990
2 49108  87.9150 359.7775 0002010  89.4071 270.7291 13.17646485237666
ONEWEB-0292             
1 49186U 21083A   26198.86512656  .00000074  00000+0  16758-3 0  9997
2 49186  87.8980 314.1330 0001802  97.8776 262.2558 13.13469236234951
ONEWEB-0303             
1 49187U 21083B   26198.88204503 -.00000039  00000+0 -13177-3 0  9994
2 49187  87.9196 329.3528 0001795  94.3859 265.7479 13.18684128234026
ONEWEB-0306             
1 49188U 21083C   26198.87193780  .00000054  00000+0  10322-3 0  9992
2 49188  87.9199 329.3439 0002106 101.0602 259.0768 13.18684551234061
ONEWEB-0307             
1 49189U 21083D   26198.85919842  .00000221  00000+0  57039-3 0  9998
2 49189  87.8981 314.1318 0001894  96.6603 263.4741 13.13468172234953
ONEWEB-0320             
1 49190U 21083E   26198.89215225 -.00000021  00000+0 -85328-4 0  9991
2 49190  87.9192 329.3544 0001958  99.3525 260.7828 13.18687561234027
ONEWEB-0321             
1 49191U 21083F   26198.65526891 -.00000036  00000+0 -12033-3 0  9998
2 49191  87.9181 268.3633 0002154 104.7539 255.3833 13.20773066240855
ONEWEB-0322             
1 49192U 21083G   26198.85497753  .00000297  00000+0  77945-3 0  9995
2 49192  87.8978 314.1324 0002089 111.5894 248.5457 13.13470013234940
ONEWEB-0324             
1 49193U 21083H   26198.86519319  .00000007  00000+0 -14626-4 0  9998
2 49193  87.9201 329.3508 0002074  94.8580 265.2789 13.18686531234046
ONEWEB-0325             
1 49194U 21083J   26198.86855474  .00000020  00000+0  17111-4 0  9990
2 49194  87.9191 329.3555 0001850  99.3063 260.8279 13.18687172234052
ONEWEB-0326             
1 49195U 21083K   26198.88388794  .00000057  00000+0  11301-3 0  9993
2 49195  87.9199 329.3527 0001645  94.3824 265.7496 13.18686201234048
ONEWEB-0327             
1 49196U 21083L   26198.88360829  .00000000  00000+0 -33600-4 0  9999
2 49196  87.9191 329.3546 0001490  96.7810 263.3492 13.18686106234067
ONEWEB-0328             
1 49197U 21083M   26198.76864308  .00000287  00000+0  75107-3 0  9991
2 49197  87.8989 314.1257 0002056  96.8026 263.3337 13.13469842234915
ONEWEB-0331             
1 49198U 21083N   26198.87699509  .00000028  00000+0  37775-4 0  9996
2 49198  87.9201 329.3481 0001684  89.7559 270.3766 13.18684309234050
ONEWEB-0333             
1 49199U 21083P   26198.83974076  .00000218  00000+0  56100-3 0  9991
2 49199  87.8984 314.1347 0001892 100.0139 260.1204 13.13470184234933
ONEWEB-0334             
1 49200U 21083Q   26198.89684484  .00000040  00000+0  67238-4 0  9999
2 49200  87.9185 268.3254 0002543 114.5265 245.6133 13.20769338240847
ONEWEB-0335             
1 49201U 21083R   26198.83466030  .00000173  00000+0  43868-3 0  9998
2 49201  87.8980 314.1333 0001819  95.9739 264.1597 13.13469283234943
